<?xml version="1.0" encoding="UTF-8"?>
<kml xmlns="http://www.opengis.net/kml/2.2" xmlns:gx="http://www.google.com/kml/ext/2.2">
    <Document id="1">
        <Style id="4">
            <LineStyle id="5">
                <color>ff000000</color>
                <colorMode>normal</colorMode>
            </LineStyle>
        </Style>
        <Style id="8">
            <IconStyle id="9">
                <color>ff0000ff</color>
                <colorMode>normal</colorMode>
                <scale>1</scale>
                <heading>0</heading>
                <Icon id="10">
                    <href>http://maps.google.com/mapfiles/kml/pushpin/ylw-pushpin.png</href>
                </Icon>
            </IconStyle>
        </Style>
        <Style id="13">
            <LineStyle id="14">
                <color>ff00d7ff</color>
                <colorMode>normal</colorMode>
            </LineStyle>
        </Style>
        <Placemark id="3">
            <name>Area Range</name>
            <styleUrl>#4</styleUrl>
            <LineString id="2">
                <coordinates>140.34547550160121,35.976565086557166,0.0 140.3453491749114,36.06668795118391,0.0 140.50075317669877,36.06673112363819,0.0 140.5007026458637,35.97660811734138,0.0 140.34547550160121,35.976565086557166,0.0</coordinates>
            </LineString>
        </Placemark>
        <Placemark id="7">
            <name>Launch</name>
            <styleUrl>#8</styleUrl>
            <Point id="6">
                <coordinates>140.456352,36.021678,0.0</coordinates>
            </Point>
        </Placemark>
        <Placemark id="12">
            <name>Safety Area</name>
            <styleUrl>#13</styleUrl>
            <LineString id="11">
                <coordinates>140.218302,36.084218,0.0 140.215038,36.083956,0.0 140.215431,36.079616,0.0 140.218827,36.080484,0.0 140.224268,36.07612,0.0 140.231486,36.084179,0.0 140.218302,36.084218,0.0</coordinates>
            </LineString>
        </Placemark>
    </Document>
</kml>
